ONEWEB-0371             
1 49297U 21090U   23059.38521139  .00000000  00000+0 -31980-4 0  9999
2 49297  87.9332 184.4958 0001516 105.1734 254.9566 13.19723834 67548
ONEWEB-0371             
1 49297U 21090U   23059.84011275  .00000071  00000+0  14600-3 0  9991
2 49297  87.9332 184.4058 0001532 106.0571 254.0731 13.19723834 68890
ONEWEB-0371             
1 49297U 21090U   23060.90154975 -.00000027  00000+0 -98607-4 0  9998
2 49297  87.9331 184.1964 0001548 105.9748 254.1556 13.19723416 67748
ONEWEB-0371             
1 49297U 21090U   23061.05318249  .00000077  00000+0  16043-3 0  9997
2 49297  87.9330 184.1666 0001551 105.8017 254.3287 13.19724301 69051
ONEWEB-0371             
1 49297U 21090U   23061.81135127  .00000032  00000+0  48156-4 0  9995
2 49297  87.9329 184.0164 0001549 105.5012 254.6292 13.19724148 67865
ONEWEB-0371             
1 49297U 21090U   23062.34206789  .00000117  00000+0  26004-3 0  9998
2 49297  87.9327 183.9114 0001559 105.4785 254.6520 13.19725434 69228
ONEWEB-0371             
1 49297U 21090U   23062.41788429  .00000125  00000+0  28033-3 0  9995
2 49297  87.9326 183.8964 0001566 105.3057 254.8249 13.19725932 67948
ONEWEB-0371             
1 49297U 21090U   23062.87278677  .00000030  00000+0  43882-4 0  9999
2 49297  87.9326 183.8063 0001523 104.4338 255.6964 13.19723984 68009
